GLOBALSTAR M068         
1 32266U 07048D   24219.92037105 -.00000070  00000+0  18579-3 0  9993
2 32266  51.9867 180.2261 0000730 151.3424 243.1064 12.62795891778144
GLOBALSTAR M079         
1 37188U 10054A   24219.83581435 -.00000104  00000+0 -21878-5 0  9999
2 37188  52.0057  16.7218 0000683  75.7169  73.7963 12.62262070636755
GLOBALSTAR M074         
1 37189U 10054B   24219.75322958 -.00000103  00000+0  70976-5 0  9995
2 37189  52.0036  16.3444 0000851  92.7597 281.1299 12.62270883637356
GLOBALSTAR M076         
1 37190U 10054C   24219.80966770 -.00000089  00000+0  81136-4 0  9991
2 37190  52.0048  16.3167 0001039  69.5556  79.9928 12.62254746637430
GLOBALSTAR M077         
1 37191U 10054D   24219.71704757 -.00000082  00000+0  11936-3 0  9990
2 37191  52.0096 333.3650 0000751 108.9571  40.2295 12.62261799637432
GLOBALSTAR M075         
1 37192U 10054E   24219.98126341 -.00000090  00000+0  78465-4 0  9997
2 37192  51.9950  58.2252 0000745  75.6629  74.6413 12.62262411636320
GLOBALSTAR M073         
1 37193U 10054F   24219.74372495 -.00000079  00000+0  13821-3 0  9996
2 37193  52.0082 332.5299 0000746  97.3798  52.1743 12.62267551638124
GLOBALSTAR M083         
1 37739U 11033A   24219.75887840 -.00000075  00000+0  16255-3 0  9996
2 37739  51.9856 281.6446 0000308 146.5270  13.4023 12.62263291607147
GLOBALSTAR M088         
1 37740U 11033B   24219.93852139 -.00000115  00000+0 -61685-4 0  9995
2 37740  51.9713 186.8494 0000197 350.1434  26.9054 12.62265845602719
GLOBALSTAR M091         
1 37741U 11033C   24219.87839469 -.00000093  00000+0  58078-4 0  9996
2 37741  51.9988 150.0283 0000282 357.8780  44.1384 12.62265238603496
GLOBALSTAR M085         
1 37742U 11033D   24219.70493147 -.00000070  00000+0  18864-3 0  9991
2 37742  51.9864 101.8718 0000479  47.2575 347.5408 12.62264112603988
GLOBALSTAR M081         
1 37743U 11033E   24219.89978660 -.00000064  00000+0  21930-3 0  9991
2 37743  51.9957 103.8720 0000666  32.1951  47.9959 12.62267527604151
GLOBALSTAR M089         
1 37744U 11033F   24219.95386575 -.00000089  00000+0  85115-4 0  9990
2 37744  51.9934  57.9961 0001125  68.7884  75.7511 12.62266709605003
GLOBALSTAR M084         
1 38040U 11080A   24219.57011831 -.00000067  00000+0  20268-3 0  9993
2 38040  52.0006 286.2862 0000740 108.3567  32.7010 12.62265249583216
GLOBALSTAR M080         
1 38041U 11080B   24219.70231035 -.00000072  00000+0  17750-3 0  9997
2 38041  52.0062 287.3800 0000722  87.2514  54.9863 12.62263575583076
GLOBALSTAR M082         
1 38042U 11080C   24219.63939729 -.00000092  00000+0  64609-4 0  9993
2 38042  52.0052 242.9834 0000562 197.5156 318.6772 12.62264852583774
GLOBALSTAR M092         
1 38043U 11080D   24219.67738008 -.00000077  00000+0  14691-3 0  9993
2 38043  52.0107 333.2266 0000831 110.5222 338.5442 12.62264674582234
GLOBALSTAR M090         
1 38044U 11080E   24219.58576332 -.00000097  00000+0  35199-4 0  9993
2 38044  51.9860 237.3605 0000270 189.1905 322.8494 12.62265843583881
GLOBALSTAR M086         
1 38045U 11080F   24219.77449579 -.00000099  00000+0  25872-4 0  9996
2 38045  51.9872 237.3114 0000781 349.5590 181.2800 12.62265208583859
GLOBALSTAR M097         
1 39072U 13005A   24219.84303402 -.00000101  00000+0  13290-4 0  9993
2 39072  52.0036 151.3316 0000398   7.9044 352.1829 12.62269118531112
GLOBALSTAR M093         
1 39073U 13005B   24219.89522522 -.00000087  00000+0  92062-4 0  9992
2 39073  51.9803 144.9748 0000479   0.3622 359.7245 12.62276512531075
GLOBALSTAR M094         
1 39074U 13005C   24219.89534001 -.00000083  00000+0  11319-3 0  9999
2 39074  51.9964  59.0425 0000623  58.5695 301.5232 12.62266601532685
GLOBALSTAR M096         
1 39075U 13005D   24219.82941932 -.00000068  00000+0  19744-3 0  9991
2 39075  52.0070 107.5136 0000468  26.0260 334.0630 12.62268338531590
GLOBALSTAR M078         
1 39076U 13005E   24219.64465701 -.00000117  00000+0 -72133-4 0  9995
2 39076  51.9849 193.0129 0000790 190.0166 170.0685 12.62273568530194
GLOBALSTAR M095         
1 39077U 13005F   24219.59171763 -.00000119  00000+0 -85923-4 0  9995
2 39077  51.9777 190.5260 0000451 249.5154 110.5664 12.62262852530408
GLOBALSTAR M087         
1 52888U 22064A   24219.84549693 -.00000098  00000+0  58151-4 0  9992
2 52888  51.9770  31.7368 0010005 129.8409 230.3373 13.37580334104305
